[{"OBJECT_NAME":"STARLINK-30303","OBJECT_ID":"2023-124Q","EPOCH":"2025-07-30T13:26:50.757216","MEAN_MOTION":15.3018941,"ECCENTRICITY":0.0001258,"INCLINATION":53.1598,"RA_OF_ASC_NODE":158.2508,"ARG_OF_PERICENTER":97.9816,"MEAN_ANOMALY":262.1327,"EPHEMERIS_TYPE":0,"CLASSIFICATION_TYPE":"U","NORAD_CAT_ID":57677,"ELEMENT_SET_NO":999,"REV_AT_EPOCH":10942,"BSTAR":4.1946e-7,"MEAN_MOTION_DOT":-3.47e-6,"MEAN_MOTION_DDOT":0},{"OBJECT_NAME":"STARLINK-30320","OBJECT_ID":"2023-124R","EPOCH":"2025-07-30T12:34:33.186144","MEAN_MOTION":15.3018964,"ECCENTRICITY":0.0001141,"INCLINATION":53.1595,"RA_OF_ASC_NODE":145.9904,"ARG_OF_PERICENTER":101.7496,"MEAN_ANOMALY":258.3632,"EPHEMERIS_TYPE":0,"CLASSIFICATION_TYPE":"U","NORAD_CAT_ID":57678,"ELEMENT_SET_NO":999,"REV_AT_EPOCH":10973,"BSTAR":-9.1892e-6,"MEAN_MOTION_DOT":-6.31e-6,"MEAN_MOTION_DDOT":0},{"OBJECT_NAME":"STARLINK-30321","OBJECT_ID":"2023-124S","EPOCH":"2025-07-30T04:17:43.385568","MEAN_MOTION":15.3019075,"ECCENTRICITY":0.0001445,"INCLINATION":53.1602,"RA_OF_ASC_NODE":160.1395,"ARG_OF_PERICENTER":100.7839,"MEAN_ANOMALY":259.3324,"EPHEMERIS_TYPE":0,"CLASSIFICATION_TYPE":"U","NORAD_CAT_ID":57679,"ELEMENT_SET_NO":999,"REV_AT_EPOCH":10904,"BSTAR":0.00017722,"MEAN_MOTION_DOT":4.892e-5,"MEAN_MOTION_DDOT":0},{"OBJECT_NAME":"STARLINK-30283","OBJECT_ID":"2023-124T","EPOCH":"2025-07-30T06:47:59.125344","MEAN_MOTION":15.30197259,"ECCENTRICITY":0.0001282,"INCLINATION":53.1591,"RA_OF_ASC_NODE":160.048,"ARG_OF_PERICENTER":93.515,"MEAN_ANOMALY":266.5997,"EPHEMERIS_TYPE":0,"CLASSIFICATION_TYPE":"U","NORAD_CAT_ID":57680,"ELEMENT_SET_NO":999,"REV_AT_EPOCH":10951,"BSTAR":2.5499e-5,"MEAN_MOTION_DOT":3.96e-6,"MEAN_MOTION_DDOT":0},{"OBJECT_NAME":"STARLINK-30273","OBJECT_ID":"2023-124U","EPOCH":"2025-07-30T13:46:41.367360","MEAN_MOTION":15.30188955,"ECCENTRICITY":0.0001301,"INCLINATION":53.1612,"RA_OF_ASC_NODE":158.741,"ARG_OF_PERICENTER":97.1152,"MEAN_ANOMALY":262.9997,"EPHEMERIS_TYPE":0,"CLASSIFICATION_TYPE":"U","NORAD_CAT_ID":57681,"ELEMENT_SET_NO":999,"REV_AT_EPOCH":10955,"BSTAR":1.0631e-5,"MEAN_MOTION_DOT":-4.4e-7,"MEAN_MOTION_DDOT":0},{"OBJECT_NAME":"STARLINK-30297","OBJECT_ID":"2023-124V","EPOCH":"2025-07-30T06:43:27.136416","MEAN_MOTION":15.30169331,"ECCENTRICITY":0.0001421,"INCLINATION":53.1587,"RA_OF_ASC_NODE":160.0938,"ARG_OF_PERICENTER":98.1809,"MEAN_ANOMALY":261.9353,"EPHEMERIS_TYPE":0,"CLASSIFICATION_TYPE":"U","NORAD_CAT_ID":57682,"ELEMENT_SET_NO":999,"REV_AT_EPOCH":10951,"BSTAR":0.00023475,"MEAN_MOTION_DOT":6.593e-5,"MEAN_MOTION_DDOT":0},{"OBJECT_NAME":"STARLINK-30295","OBJECT_ID":"2023-124W","EPOCH":"2025-07-30T13:17:52.649376","MEAN_MOTION":15.30190718,"ECCENTRICITY":0.0001132,"INCLINATION":53.159,"RA_OF_ASC_NODE":158.8701,"ARG_OF_PERICENTER":92.3688,"MEAN_ANOMALY":267.7442,"EPHEMERIS_TYPE":0,"CLASSIFICATION_TYPE":"U","NORAD_CAT_ID":57683,"ELEMENT_SET_NO":999,"REV_AT_EPOCH":10954,"BSTAR":-1.252e-6,"MEAN_MOTION_DOT":-3.96e-6,"MEAN_MOTION_DDOT":0},{"OBJECT_NAME":"STARLINK-30288","OBJECT_ID":"2023-129A","EPOCH":"2025-07-30T19:53:33.047808","MEAN_MOTION":15.02535618,"ECCENTRICITY":8.09e-5,"INCLINATION":43.0026,"RA_OF_ASC_NODE":245.5737,"ARG_OF_PERICENTER":284.7313,"MEAN_ANOMALY":75.344,"EPHEMERIS_TYPE":0,"CLASSIFICATION_TYPE":"U","NORAD_CAT_ID":57698,"ELEMENT_SET_NO":999,"REV_AT_EPOCH":10728,"BSTAR":-2.1756e-5,"MEAN_MOTION_DOT":-4.97e-6,"MEAN_MOTION_DDOT":0},{"OBJECT_NAME":"STARLINK-30347","OBJECT_ID":"2023-129B","EPOCH":"2025-07-30T09:55:47.969760","MEAN_MOTION":15.02534358,"ECCENTRICITY":0.0001249,"INCLINATION":43.0021,"RA_OF_ASC_NODE":235.6952,"ARG_OF_PERICENTER":277.9139,"MEAN_ANOMALY":82.1561,"EPHEMERIS_TYPE":0,"CLASSIFICATION_TYPE":"U","NORAD_CAT_ID":57699,"ELEMENT_SET_NO":999,"REV_AT_EPOCH":10736,"BSTAR":3.9607e-6,"MEAN_MOTION_DOT":-1.5e-6,"MEAN_MOTION_DDOT":0},{"OBJECT_NAME":"STARLINK-30332","OBJECT_ID":"2023-129C","EPOCH":"2025-07-30T03:51:29.084256","MEAN_MOTION":15.02533807,"ECCENTRICITY":0.000165,"INCLINATION":43.003,"RA_OF_ASC_NODE":249.1633,"ARG_OF_PERICENTER":276.0734,"MEAN_ANOMALY":83.9921,"EPHEMERIS_TYPE":0,"CLASSIFICATION_TYPE":"U","NORAD_CAT_ID":57700,"ELEMENT_SET_NO":999,"REV_AT_EPOCH":10704,"BSTAR":1.0392e-5,"MEAN_MOTION_DOT":-6.3e-7,"MEAN_MOTION_DDOT":0},{"OBJECT_NAME":"STARLINK-30345","OBJECT_ID":"2023-129D","EPOCH":"2025-07-30T09:55:23.187648","MEAN_MOTION":15.02536176,"ECCENTRICITY":0.0001789,"INCLINATION":43.0022,"RA_OF_ASC_NODE":248.4792,"ARG_OF_PERICENTER":289.44,"MEAN_ANOMALY":70.6249,"EPHEMERIS_TYPE":0,"CLASSIFICATION_TYPE":"U","NORAD_CAT_ID":57701,"ELEMENT_SET_NO":999,"REV_AT_EPOCH":10707,"BSTAR":1.2984e-5,"MEAN_MOTION_DOT":-2.8e-7,"MEAN_MOTION_DDOT":0},{"OBJECT_NAME":"STARLINK-30333","OBJECT_ID":"2023-129E","EPOCH":"2025-07-30T09:45:47.985696","MEAN_MOTION":15.02532256,"ECCENTRICITY":0.0001376,"INCLINATION":43.0022,"RA_OF_ASC_NODE":248.4288,"ARG_OF_PERICENTER":275.8946,"MEAN_ANOMALY":84.1739,"EPHEMERIS_TYPE":0,"CLASSIFICATION_TYPE":"U","NORAD_CAT_ID":57702,"ELEMENT_SET_NO":999,"REV_AT_EPOCH":10721,"BSTAR":-1.6741e-5,"MEAN_MOTION_DOT":-4.3e-6,"MEAN_MOTION_DDOT":0},{"OBJECT_NAME":"STARLINK-30336","OBJECT_ID":"2023-129F","EPOCH":"2025-07-30T09:50:35.470464","MEAN_MOTION":15.02534664,"ECCENTRICITY":0.000132,"INCLINATION":43.0027,"RA_OF_ASC_NODE":248.457,"ARG_OF_PERICENTER":291.4863,"MEAN_ANOMALY":68.5838,"EPHEMERIS_TYPE":0,"CLASSIFICATION_TYPE":"U","NORAD_CAT_ID":57703,"ELEMENT_SET_NO":999,"REV_AT_EPOCH":10707,"BSTAR":6.6687e-5,"MEAN_MOTION_DOT":6.97e-6,"MEAN_MOTION_DDOT":0},{"OBJECT_NAME":"STARLINK-30346","OBJECT_ID":"2023-129G","EPOCH":"2025-07-30T19:10:33.947328","MEAN_MOTION":15.02548177,"ECCENTRICITY":0.0001612,"INCLINATION":43.0024,"RA_OF_ASC_NODE":246.2109,"ARG_OF_PERICENTER":272.1932,"MEAN_ANOMALY":87.8726,"EPHEMERIS_TYPE":0,"CLASSIFICATION_TYPE":"U","NORAD_CAT_ID":57704,"ELEMENT_SET_NO":999,"REV_AT_EPOCH":10713,"BSTAR":-0.00038716,"MEAN_MOTION_DOT":-5.431e-5,"MEAN_MOTION_DDOT":0},{"OBJECT_NAME":"STARLINK-30342","OBJECT_ID":"2023-129H","EPOCH":"2025-07-30T22:00:01.999584","MEAN_MOTION":15.39263525,"ECCENTRICITY":0.0001196,"INCLINATION":42.9999,"RA_OF_ASC_NODE":243.0015,"ARG_OF_PERICENTER":239.1799,"MEAN_ANOMALY":41.9941,"EPHEMERIS_TYPE":0,"CLASSIFICATION_TYPE":"U","NORAD_CAT_ID":57705,"ELEMENT_SET_NO":999,"REV_AT_EPOCH":10731,"BSTAR":0.050088,"MEAN_MOTION_DOT":0.02231677,"MEAN_MOTION_DDOT":0},{"OBJECT_NAME":"STARLINK-30327","OBJECT_ID":"2023-129K","EPOCH":"2025-07-30T18:39:53.834688","MEAN_MOTION":15.04159005,"ECCENTRICITY":0.0001747,"INCLINATION":43.0018,"RA_OF_ASC_NODE":233.3504,"ARG_OF_PERICENTER":16.8709,"MEAN_ANOMALY":343.2191,"EPHEMERIS_TYPE":0,"CLASSIFICATION_TYPE":"U","NORAD_CAT_ID":57707,"ELEMENT_SET_NO":999,"REV_AT_EPOCH":10728,"BSTAR":0.0016533,"MEAN_MOTION_DOT":0.0002319,"MEAN_MOTION_DDOT":0},{"OBJECT_NAME":"STARLINK-30315","OBJECT_ID":"2023-129L","EPOCH":"2025-07-30T10:57:32.787072","MEAN_MOTION":15.02534864,"ECCENTRICITY":0.0001667,"INCLINATION":43.0028,"RA_OF_ASC_NODE":247.9441,"ARG_OF_PERICENTER":276.1598,"MEAN_ANOMALY":83.9054,"EPHEMERIS_TYPE":0,"CLASSIFICATION_TYPE":"U","NORAD_CAT_ID":57708,"ELEMENT_SET_NO":999,"REV_AT_EPOCH":10722,"BSTAR":4.6576e-5,"MEAN_MOTION_DOT":4.25e-6,"MEAN_MOTION_DDOT":0}]
