STARLINK-30303          
1 57677U 23124Q   25211.56030969 -.00000347  00000+0  41946-6 0  9997
2 57677  53.1598 158.2508 0001258  97.9816 262.1327 15.30189410109421
STARLINK-30320          
1 57678U 23124R   25211.52399521 -.00000631  00000+0 -91892-5 0  9997
2 57678  53.1595 145.9904 0001141 101.7496 258.3632 15.30189640109736
STARLINK-30321          
1 57679U 23124S   25211.17897437  .00004892  00000+0  17722-3 0  9997
2 57679  53.1602 160.1395 0001445 100.7839 259.3324 15.30190750109043
STARLINK-30283          
1 57680U 23124T   25211.28332321  .00000396  00000+0  25499-4 0  9993
2 57680  53.1591 160.0480 0001282  93.5150 266.5997 15.30197259109519
STARLINK-30273          
1 57681U 23124U   25211.57408990 -.00000044  00000+0  10631-4 0  9995
2 57681  53.1612 158.7410 0001301  97.1152 262.9997 15.30188955109552
STARLINK-30297          
1 57682U 23124V   25211.28017519  .00006593  00000+0  23475-3 0  9990
2 57682  53.1587 160.0938 0001421  98.1809 261.9353 15.30169331109516
STARLINK-30295          
1 57683U 23124W   25211.55408159 -.00000396  00000+0 -12520-5 0  9993
2 57683  53.1590 158.8701 0001132  92.3688 267.7442 15.30190718109543
STARLINK-30288          
1 57698U 23129A   25211.82885472 -.00000497  00000+0 -21756-4 0  9993
2 57698  43.0026 245.5737 0000809 284.7313  75.3440 15.02535618107287
STARLINK-30347          
1 57699U 23129B   25211.41374965 -.00000150  00000+0  39607-5 0  9999
2 57699  43.0021 235.6952 0001249 277.9139  82.1561 15.02534358107360
STARLINK-30332          
1 57700U 23129C   25211.16075329 -.00000063  00000+0  10392-4 0  9998
2 57700  43.0030 249.1633 0001650 276.0734  83.9921 15.02533807107048
STARLINK-30345          
1 57701U 23129D   25211.41346282 -.00000028  00000+0  12984-4 0  9996
2 57701  43.0022 248.4792 0001789 289.4400  70.6249 15.02536176107070
STARLINK-30333          
1 57702U 23129E   25211.40680539 -.00000430  00000+0 -16741-4 0  9995
2 57702  43.0022 248.4288 0001376 275.8946  84.1739 15.02532256107212
STARLINK-30336          
1 57703U 23129F   25211.41013276  .00000697  00000+0  66687-4 0  9992
2 57703  43.0027 248.4570 0001320 291.4863  68.5838 15.02534664107078
STARLINK-30346          
1 57704U 23129G   25211.79900402 -.00005431  00000+0 -38716-3 0  9994
2 57704  43.0024 246.2109 0001612 272.1932  87.8726 15.02548177107138
STARLINK-30342          
1 57705U 23129H   25211.91668981  .02231677  00000+0  50088-1 0  9999
2 57705  42.9999 243.0015 0001196 239.1799  41.9941 15.39263525107311
STARLINK-30327          
1 57707U 23129K   25211.77770642  .00023190  00000+0  16533-2 0  9998
2 57707  43.0018 233.3504 0001747  16.8709 343.2191 15.04159005107285
STARLINK-30315          
1 57708U 23129L   25211.45662948  .00000425  00000+0  46576-4 0  9991
2 57708  43.0028 247.9441 0001667 276.1598  83.9054 15.02534864107224
